TIANMU-1 10             
1 57402U 23101D   26095.59354840  .00008977  00000+0  31635-3 0  9996
2 57402  97.2692 148.1467 0006083  63.1580 297.0282 15.29492127150543
FENGYUN 3F              
1 57490U 23111A   26095.60603203  .00000124  00000+0  78809-4 0  9997
2 57490  98.6876 166.9538 0000801  87.9221 272.2047 14.19926328138569
ARKTIKA-M 2             
1 58584U 23198A   26089.99739019  .00000142  00000+0  00000+0 0  9990
2 58584  63.2169 163.0455 6882975 267.6817  18.8399  2.00607099 16755
TIANMU-1 11             
1 58645U 23205A   26095.62432993  .00007326  00000+0  28523-3 0  9990
2 58645  97.3509 118.3403 0007138 257.0439 103.0002 15.26263203126456
TIANMU-1 12             
1 58646U 23205B   26095.59239622  .00007621  00000+0  29722-3 0  9991
2 58646  97.3498 118.0807 0005714 234.1582 125.9127 15.26201428126432
TIANMU-1 13             
1 58647U 23205C   26095.62239584  .00007679  00000+0  29897-3 0  9999
2 58647  97.3526 118.3611 0006505 212.2597 147.8245 15.26252719126436
TIANMU-1 14             
1 58648U 23205D   26095.60741213  .00008021  00000+0  31234-3 0  9995
2 58648  97.3461 117.5908 0007062 218.7595 141.3138 15.26226625126430
TIANMU-1 19             
1 58660U 23208A   26095.54247485  .00012676  00000+0  43282-3 0  9994
2 58660  97.4416 211.5726 0004703 198.0939 162.0135 15.30442139126217
TIANMU-1 20             
1 58661U 23208B   26095.57133756  .00011641  00000+0  38332-3 0  9994
2 58661  97.4358 212.1623 0006587 212.2497 147.8343 15.31627976126303
TIANMU-1 21             
1 58662U 23208C   26095.59904762  .00014285  00000+0  43963-3 0  9993
2 58662  97.4415 214.5692 0006666 206.5803 153.5099 15.33742234126438
TIANMU-1 22             
1 58663U 23208D   26095.56719191  .00011020  00000+0  38177-3 0  9996
2 58663  97.4412 211.5901 0002878 219.0055 141.0978 15.30012752126222
TIANMU-1 15             
1 58700U 24004A   26095.60490950  .00008328  00000+0  32411-3 0  9999
2 58700  97.4677 281.8157 0005827 237.8302 122.2371 15.26250483124709
TIANMU-1 16             
1 58701U 24004B   26095.58776608  .00008628  00000+0  33533-3 0  9993
2 58701  97.4621 281.1028 0004222 239.0598 121.0225 15.26288551124700
TIANMU-1 17             
1 58702U 24004C   26095.56975582  .00008307  00000+0  32444-3 0  9998
2 58702  97.4650 281.5501 0004051 246.1160 113.9654 15.26139780124690
TIANMU-1 18             
1 58703U 24004D   26095.62123825  .00007943  00000+0  30927-3 0  9990
2 58703  97.4669 281.8178 0002851 234.7351 125.3621 15.26258484124701
INSAT-3DS               
1 58990U 24033A   26095.60126286 -.00000154  00000+0  00000+0 0  9995
2 58990   0.0429  92.4062 0002185 289.9933 110.0295  1.00271640 46346
