[{"OBJECT_NAME":"TIANMU-1 10","OBJECT_ID":"2023-101D","EPOCH":"2026-04-05T14:14:42.581760","MEAN_MOTION":15.29492127,"ECCENTRICITY":0.00060832,"INCLINATION":97.2692,"RA_OF_ASC_NODE":148.1467,"ARG_OF_PERICENTER":63.158,"MEAN_ANOMALY":297.0282,"EPHEMERIS_TYPE":0,"CLASSIFICATION_TYPE":"U","NORAD_CAT_ID":57402,"ELEMENT_SET_NO":999,"REV_AT_EPOCH":15054,"BSTAR":0.00031634892,"MEAN_MOTION_DOT":8.977e-5,"MEAN_MOTION_DDOT":0},{"OBJECT_NAME":"FENGYUN 3F","OBJECT_ID":"2023-111A","EPOCH":"2026-04-05T14:32:41.167392","MEAN_MOTION":14.19926328,"ECCENTRICITY":8.015e-5,"INCLINATION":98.6876,"RA_OF_ASC_NODE":166.9538,"ARG_OF_PERICENTER":87.9221,"MEAN_ANOMALY":272.2047,"EPHEMERIS_TYPE":0,"CLASSIFICATION_TYPE":"U","NORAD_CAT_ID":57490,"ELEMENT_SET_NO":999,"REV_AT_EPOCH":13856,"BSTAR":7.8808522e-5,"MEAN_MOTION_DOT":1.24e-6,"MEAN_MOTION_DDOT":0},{"OBJECT_NAME":"ARKTIKA-M 2","OBJECT_ID":"2023-198A","EPOCH":"2026-03-30T23:56:14.512416","MEAN_MOTION":2.00607099,"ECCENTRICITY":0.68829758,"INCLINATION":63.2169,"RA_OF_ASC_NODE":163.0455,"ARG_OF_PERICENTER":267.6817,"MEAN_ANOMALY":18.8399,"EPHEMERIS_TYPE":0,"CLASSIFICATION_TYPE":"U","NORAD_CAT_ID":58584,"ELEMENT_SET_NO":999,"REV_AT_EPOCH":1675,"BSTAR":0,"MEAN_MOTION_DOT":1.42e-6,"MEAN_MOTION_DDOT":0},{"OBJECT_NAME":"TIANMU-1 11","OBJECT_ID":"2023-205A","EPOCH":"2026-04-05T14:59:02.105952","MEAN_MOTION":15.26263203,"ECCENTRICITY":0.00071383,"INCLINATION":97.3509,"RA_OF_ASC_NODE":118.3403,"ARG_OF_PERICENTER":257.0439,"MEAN_ANOMALY":103.0002,"EPHEMERIS_TYPE":0,"CLASSIFICATION_TYPE":"U","NORAD_CAT_ID":58645,"ELEMENT_SET_NO":999,"REV_AT_EPOCH":12645,"BSTAR":0.00028522914,"MEAN_MOTION_DOT":7.326e-5,"MEAN_MOTION_DDOT":0},{"OBJECT_NAME":"TIANMU-1 12","OBJECT_ID":"2023-205B","EPOCH":"2026-04-05T14:13:03.033408","MEAN_MOTION":15.26201428,"ECCENTRICITY":0.00057147,"INCLINATION":97.3498,"RA_OF_ASC_NODE":118.0807,"ARG_OF_PERICENTER":234.1582,"MEAN_ANOMALY":125.9127,"EPHEMERIS_TYPE":0,"CLASSIFICATION_TYPE":"U","NORAD_CAT_ID":58646,"ELEMENT_SET_NO":999,"REV_AT_EPOCH":12643,"BSTAR":0.00029721804,"MEAN_MOTION_DOT":7.621e-5,"MEAN_MOTION_DDOT":0},{"OBJECT_NAME":"TIANMU-1 13","OBJECT_ID":"2023-205C","EPOCH":"2026-04-05T14:56:15.000576","MEAN_MOTION":15.26252719,"ECCENTRICITY":0.00065054,"INCLINATION":97.3526,"RA_OF_ASC_NODE":118.3611,"ARG_OF_PERICENTER":212.2597,"MEAN_ANOMALY":147.8245,"EPHEMERIS_TYPE":0,"CLASSIFICATION_TYPE":"U","NORAD_CAT_ID":58647,"ELEMENT_SET_NO":999,"REV_AT_EPOCH":12643,"BSTAR":0.00029896785,"MEAN_MOTION_DOT":7.679e-5,"MEAN_MOTION_DDOT":0},{"OBJECT_NAME":"TIANMU-1 14","OBJECT_ID":"2023-205D","EPOCH":"2026-04-05T14:34:40.408032","MEAN_MOTION":15.26226625,"ECCENTRICITY":0.00070629,"INCLINATION":97.3461,"RA_OF_ASC_NODE":117.5908,"ARG_OF_PERICENTER":218.7595,"MEAN_ANOMALY":141.3138,"EPHEMERIS_TYPE":0,"CLASSIFICATION_TYPE":"U","NORAD_CAT_ID":58648,"ELEMENT_SET_NO":999,"REV_AT_EPOCH":12643,"BSTAR":0.00031233957,"MEAN_MOTION_DOT":8.021e-5,"MEAN_MOTION_DDOT":0},{"OBJECT_NAME":"TIANMU-1 19","OBJECT_ID":"2023-208A","EPOCH":"2026-04-05T13:01:09.827040","MEAN_MOTION":15.30442139,"ECCENTRICITY":0.00047038,"INCLINATION":97.4416,"RA_OF_ASC_NODE":211.5726,"ARG_OF_PERICENTER":198.0939,"MEAN_ANOMALY":162.0135,"EPHEMERIS_TYPE":0,"CLASSIFICATION_TYPE":"U","NORAD_CAT_ID":58660,"ELEMENT_SET_NO":999,"REV_AT_EPOCH":12621,"BSTAR":0.00043281686,"MEAN_MOTION_DOT":0.00012676,"MEAN_MOTION_DDOT":0},{"OBJECT_NAME":"TIANMU-1 20","OBJECT_ID":"2023-208B","EPOCH":"2026-04-05T13:42:43.565184","MEAN_MOTION":15.31627976,"ECCENTRICITY":0.00065872,"INCLINATION":97.4358,"RA_OF_ASC_NODE":212.1623,"ARG_OF_PERICENTER":212.2497,"MEAN_ANOMALY":147.8343,"EPHEMERIS_TYPE":0,"CLASSIFICATION_TYPE":"U","NORAD_CAT_ID":58661,"ELEMENT_SET_NO":999,"REV_AT_EPOCH":12630,"BSTAR":0.00038331887,"MEAN_MOTION_DOT":0.00011641,"MEAN_MOTION_DDOT":0},{"OBJECT_NAME":"TIANMU-1 21","OBJECT_ID":"2023-208C","EPOCH":"2026-04-05T14:22:37.714368","MEAN_MOTION":15.33742234,"ECCENTRICITY":0.00066664,"INCLINATION":97.4415,"RA_OF_ASC_NODE":214.5692,"ARG_OF_PERICENTER":206.5803,"MEAN_ANOMALY":153.5099,"EPHEMERIS_TYPE":0,"CLASSIFICATION_TYPE":"U","NORAD_CAT_ID":58662,"ELEMENT_SET_NO":999,"REV_AT_EPOCH":12643,"BSTAR":0.00043963091,"MEAN_MOTION_DOT":0.00014285,"MEAN_MOTION_DDOT":0},{"OBJECT_NAME":"TIANMU-1 22","OBJECT_ID":"2023-208D","EPOCH":"2026-04-05T13:36:45.381024","MEAN_MOTION":15.30012752,"ECCENTRICITY":0.00028788,"INCLINATION":97.4412,"RA_OF_ASC_NODE":211.5901,"ARG_OF_PERICENTER":219.0055,"MEAN_ANOMALY":141.0978,"EPHEMERIS_TYPE":0,"CLASSIFICATION_TYPE":"U","NORAD_CAT_ID":58663,"ELEMENT_SET_NO":999,"REV_AT_EPOCH":12622,"BSTAR":0.00038177108,"MEAN_MOTION_DOT":0.0001102,"MEAN_MOTION_DDOT":0},{"OBJECT_NAME":"TIANMU-1 15","OBJECT_ID":"2024-004A","EPOCH":"2026-04-05T14:31:04.180800","MEAN_MOTION":15.26250483,"ECCENTRICITY":0.00058279,"INCLINATION":97.4677,"RA_OF_ASC_NODE":281.8157,"ARG_OF_PERICENTER":237.8302,"MEAN_ANOMALY":122.2371,"EPHEMERIS_TYPE":0,"CLASSIFICATION_TYPE":"U","NORAD_CAT_ID":58700,"ELEMENT_SET_NO":999,"REV_AT_EPOCH":12470,"BSTAR":0.00032411433,"MEAN_MOTION_DOT":8.328e-5,"MEAN_MOTION_DDOT":0},{"OBJECT_NAME":"TIANMU-1 16","OBJECT_ID":"2024-004B","EPOCH":"2026-04-05T14:06:22.989312","MEAN_MOTION":15.26288551,"ECCENTRICITY":0.00042226,"INCLINATION":97.4621,"RA_OF_ASC_NODE":281.1028,"ARG_OF_PERICENTER":239.0598,"MEAN_ANOMALY":121.0225,"EPHEMERIS_TYPE":0,"CLASSIFICATION_TYPE":"U","NORAD_CAT_ID":58701,"ELEMENT_SET_NO":999,"REV_AT_EPOCH":12470,"BSTAR":0.00033533385,"MEAN_MOTION_DOT":8.628e-5,"MEAN_MOTION_DDOT":0},{"OBJECT_NAME":"TIANMU-1 17","OBJECT_ID":"2024-004C","EPOCH":"2026-04-05T13:40:26.902848","MEAN_MOTION":15.2613978,"ECCENTRICITY":0.00040514,"INCLINATION":97.465,"RA_OF_ASC_NODE":281.5501,"ARG_OF_PERICENTER":246.116,"MEAN_ANOMALY":113.9654,"EPHEMERIS_TYPE":0,"CLASSIFICATION_TYPE":"U","NORAD_CAT_ID":58702,"ELEMENT_SET_NO":999,"REV_AT_EPOCH":12469,"BSTAR":0.00032444379,"MEAN_MOTION_DOT":8.307e-5,"MEAN_MOTION_DDOT":0},{"OBJECT_NAME":"TIANMU-1 18","OBJECT_ID":"2024-004D","EPOCH":"2026-04-05T14:54:34.984800","MEAN_MOTION":15.26258484,"ECCENTRICITY":0.00028513,"INCLINATION":97.4669,"RA_OF_ASC_NODE":281.8178,"ARG_OF_PERICENTER":234.7351,"MEAN_ANOMALY":125.3621,"EPHEMERIS_TYPE":0,"CLASSIFICATION_TYPE":"U","NORAD_CAT_ID":58703,"ELEMENT_SET_NO":999,"REV_AT_EPOCH":12470,"BSTAR":0.00030927015,"MEAN_MOTION_DOT":7.943e-5,"MEAN_MOTION_DDOT":0},{"OBJECT_NAME":"INSAT-3DS","OBJECT_ID":"2024-033A","EPOCH":"2026-04-05T14:25:49.111104","MEAN_MOTION":1.0027164,"ECCENTRICITY":0.00021852,"INCLINATION":0.0429,"RA_OF_ASC_NODE":92.4062,"ARG_OF_PERICENTER":289.9933,"MEAN_ANOMALY":110.0295,"EPHEMERIS_TYPE":0,"CLASSIFICATION_TYPE":"U","NORAD_CAT_ID":58990,"ELEMENT_SET_NO":999,"REV_AT_EPOCH":4634,"BSTAR":0,"MEAN_MOTION_DOT":-1.54e-6,"MEAN_MOTION_DDOT":0}]
